CCSDS_OMM_VERS = 2.0
CREATION_DATE  = 
ORIGINATOR     = 

OBJECT_NAME    = XRISM
OBJECT_ID      = 2023-137A
CENTER_NAME    = EARTH
REF_FRAME      = TEME
TIME_SYSTEM    = UTC
MEAN_ELEMENT_THEORY = SGP/SGP4

EPOCH          = 2026-04-03T12:49:17.119488
MEAN_MOTION    = 15.11805272
ECCENTRICITY   = .0007841
INCLINATION    = 31.0011
RA_OF_ASC_NODE = 122.9307
ARG_OF_PERICENTER = 288.5773
MEAN_ANOMALY   = 71.4014

EPHEMERIS_TYPE = 0
CLASSIFICATION_TYPE = U
NORAD_CAT_ID   = 57800
ELEMENT_SET_NO = 999
REV_AT_EPOCH   = 14155
BSTAR          = .51504369E-3
MEAN_MOTION_DOT = .9122E-4
MEAN_MOTION_DDOT = 0

CCSDS_OMM_VERS = 2.0
CREATION_DATE  = 
ORIGINATOR     = 

OBJECT_NAME    = ACS3
OBJECT_ID      = 2024-077B
CENTER_NAME    = EARTH
REF_FRAME      = TEME
TIME_SYSTEM    = UTC
MEAN_ELEMENT_THEORY = SGP/SGP4

EPOCH          = 2026-04-03T13:04:43.207392
MEAN_MOTION    = 13.90823198
ECCENTRICITY   = .00733745
INCLINATION    = 97.1951
RA_OF_ASC_NODE = 29.0711
ARG_OF_PERICENTER = 20.4828
MEAN_ANOMALY   = 339.9252

EPHEMERIS_TYPE = 0
CLASSIFICATION_TYPE = U
NORAD_CAT_ID   = 59588
ELEMENT_SET_NO = 999
REV_AT_EPOCH   = 9765
BSTAR          = .20948491E-1
MEAN_MOTION_DOT = .26835E-3
MEAN_MOTION_DDOT = 0

CCSDS_OMM_VERS = 2.0
CREATION_DATE  = 
ORIGINATOR     = 

OBJECT_NAME    = HTV-X1
OBJECT_ID      = 2025-241A
CENTER_NAME    = EARTH
REF_FRAME      = TEME
TIME_SYSTEM    = UTC
MEAN_ELEMENT_THEORY = SGP/SGP4

EPOCH          = 2026-04-03T15:01:57.716544
MEAN_MOTION    = 15.32516519
ECCENTRICITY   = .00072843
INCLINATION    = 51.6359
RA_OF_ASC_NODE = 312.8669
ARG_OF_PERICENTER = 268.9502
MEAN_ANOMALY   = 91.0645

EPHEMERIS_TYPE = 0
CLASSIFICATION_TYPE = U
NORAD_CAT_ID   = 66174
ELEMENT_SET_NO = 999
REV_AT_EPOCH   = 2476
BSTAR          = .19198734E-3
MEAN_MOTION_DOT = .5755E-4
MEAN_MOTION_DDOT = 0

CCSDS_OMM_VERS = 2.0
CREATION_DATE  = 
ORIGINATOR     = 

OBJECT_NAME    = SZ-21 MODULE
OBJECT_ID      = 2025-246C
CENTER_NAME    = EARTH
REF_FRAME      = TEME
TIME_SYSTEM    = UTC
MEAN_ELEMENT_THEORY = SGP/SGP4

EPOCH          = 2026-04-03T13:41:59.327520
MEAN_MOTION    = 15.70603524
ECCENTRICITY   = .00029696
INCLINATION    = 41.4748
RA_OF_ASC_NODE = 49.9717
ARG_OF_PERICENTER = 226.3876
MEAN_ANOMALY   = 133.6720

EPHEMERIS_TYPE = 0
CLASSIFICATION_TYPE = U
NORAD_CAT_ID   = 66515
ELEMENT_SET_NO = 999
REV_AT_EPOCH   = 2198
BSTAR          = .44364236E-3
MEAN_MOTION_DOT = .56445E-3
MEAN_MOTION_DDOT = 0

